COMMENT,ORIGINATOR,NORAD_CAT_ID,OBJECT_NAME,OBJECT_TYPE,CLASSIFICATION_TYPE,INTLDES,EPOCH,EPOCH_MICROSECONDS,MEAN_MOTION,ECCENTRICITY,INCLINATION,RA_OF_ASC_NODE,ARG_OF_PERICENTER,MEAN_ANOMALY,EPHEMERIS_TYPE,ELEMENT_SET_NO,REV_AT_EPOCH,BSTAR,MEAN_MOTION_DOT,MEAN_MOTION_DDOT,FILE,TLE_LINE0,TLE_LINE1,TLE_LINE2,OBJECT_ID,OBJECT_NUMBER,SEMIMAJOR_AXIS,PERIOD,APOGEE,PERIGEE,DECAYED
"GENERATED VIA SPACETRACK.ORG API","18 SPCS","48886","SPACEBEE-102","PAYLOAD","U","21059H","2021-07-25 08:12:38","249568","15.11957558","0.0009915","97.5163","334.7301","145.8898","214.2971","0","999","446","0.00012034","0.00002001","0","3082986","0 SPACEBEE-102","1 48886U 21059H   21206.34210937  .00002001  00000-0  12034-3 0  9997","2 48886  97.5163 334.7301 0009915 145.8898 214.2971 15.11957558  4462","2021-059H","48886","6908.368","95.241","537.082","523.383","0"
"GENERATED VIA SPACETRACK.ORG API","18 SPCS","48886","SPACEBEE-102","PAYLOAD","U","21059H","2021-07-26 08:02:09","221280","15.11961014","0.0009986","97.5165","335.7068","142.732","217.4605","0","999","461","0.0001132","0.00001879","0","3083422","0 SPACEBEE-102","1 48886U 21059H   21207.33482895  .00001879  00000-0  11320-3 0  9990","2 48886  97.5165 335.7068 0009986 142.7320 217.4605 15.11961014  4617","2021-059H","48886","6908.357","95.241","537.121","523.323","0"
"GENERATED VIA SPACETRACK.ORG API","18 SPCS","48886","SPACEBEE-102","PAYLOAD","U","21059H","2021-07-26 08:02:09","221280","15.11961014","0.0009986","97.5165","335.7068","142.732","217.4605","0","999","461","0.0001132","0.00001879","0","3083474","0 SPACEBEE-102","1 48886U 21059H   21207.33482895  .00001879  00000-0  11320-3 0  9990","2 48886  97.5165 335.7068 0009986 142.7320 217.4605 15.11961014  4617","2021-059H","48886","6908.357","95.241","537.121","523.323","0"
"GENERATED VIA SPACETRACK.ORG API","18 SPCS","48886","SPACEBEE-102","PAYLOAD","U","21059H","2021-07-27 07:51:40","22784","15.11964228","0.0010079","97.5168","336.6837","139.6418","220.5562","0","999","476","0.00010732","0.00001778","0","3084099","0 SPACEBEE-102","1 48886U 21059H   21208.32754656  .00001778  00000-0  10732-3 0  9991","2 48886  97.5168 336.6837 0010079 139.6418 220.5562 15.11964228  4765","2021-059H","48886","6908.347","95.240","537.175","523.249","0"
"GENERATED VIA SPACETRACK.ORG API","18 SPCS","48886","SPACEBEE-102","PAYLOAD","U","21059H","2021-07-27 20:34:04","353312","15.11965951","0.001012","97.5169","337.2047","138.0525","222.1482","0","999","484","0.00010473","0.00001733","0","3084335","0 SPACEBEE-102","1 48886U 21059H   21208.85699483  .00001733  00000-0  10473-3 0  9998","2 48886  97.5169 337.2047 0010120 138.0525 222.1482 15.11965951  4847","2021-059H","48886","6908.342","95.240","537.198","523.216","0"
"GENERATED VIA SPACETRACK.ORG API","18 SPCS","48886","SPACEBEE-102","PAYLOAD","U","21059H","2021-07-27 20:34:04","353312","15.11965951","0.001012","97.5169","337.2047","138.0525","222.1482","0","999","484","0.00010473","0.00001733","0","3084475","0 SPACEBEE-102","1 48886U 21059H   21208.85699483  .00001733  00000-0  10473-3 0  9998","2 48886  97.5169 337.2047 0010120 138.0525 222.1482 15.11965951  4847","2021-059H","48886","6908.342","95.240","537.198","523.216","0"
"GENERATED VIA SPACETRACK.ORG API","18 SPCS","48886","SPACEBEE-102","PAYLOAD","U","21059H","2021-07-28 07:41:10","564224","15.11968155","0.0010142","97.5169","337.6606","136.6812","223.5217","0","999","491","0.00010949","0.00001815","0","3084730","0 SPACEBEE-102","1 48886U 21059H   21209.32026116  .00001815  00000-0  10949-3 0  9997","2 48886  97.5169 337.6606 0010142 136.6812 223.5217 15.11968155  4917","2021-059H","48886","6908.335","95.240","537.207","523.194","0"
"GENERATED VIA SPACETRACK.ORG API","18 SPCS","48886","SPACEBEE-102","PAYLOAD","U","21059H","2021-07-28 20:23:34","773792","15.11970098","0.001019","97.517","338.1815","134.9813","225.2245","0","999","499","0.00010949","0.00001815","0","3085005","0 SPACEBEE-102","1 48886U 21059H   21209.84970803  .00001815  00000-0  10949-3 0  9995","2 48886  97.5170 338.1815 0010190 134.9813 225.2245 15.11970098  4999","2021-059H","48886","6908.329","95.240","537.234","523.155","0"
"GENERATED VIA SPACETRACK.ORG API","18 SPCS","48886","SPACEBEE-102","PAYLOAD","U","21059H","2021-07-28 21:58:52","791456","15.11970416","0.0010195","97.517","338.2466","134.7901","225.416","0","999","500","0.00011029","0.00001829","0","3085184","0 SPACEBEE-102","1 48886U 21059H   21209.91588879  .00001829  00000-0  11029-3 0  9996","2 48886  97.5170 338.2466 0010195 134.7901 225.4160 15.11970416  5008","2021-059H","48886","6908.328","95.240","537.237","523.150","0"
"GENERATED VIA SPACETRACK.ORG API","18 SPCS","48886","SPACEBEE-102","PAYLOAD","U","21059H","2021-07-29 07:30:40","893120","15.11972407","0.001023","97.5169","338.6374","133.6228","226.5853","0","999","506","0.00011619","0.00001931","0","3085488","0 SPACEBEE-102","1 48886U 21059H   21210.31297330  .00001931  00000-0  11619-3 0  9990","2 48886  97.5169 338.6374 0010230 133.6228 226.5853 15.11972407  5067","2021-059H","48886","6908.322","95.240","537.255","523.120","0"
"GENERATED VIA SPACETRACK.ORG API","18 SPCS","48886","SPACEBEE-102","PAYLOAD","U","21059H","2021-07-29 20:13:04","954944","15.11974774","0.0010266","97.5169","339.1584","132.0383","228.1722","0","999","514","0.00011979","0.00001993","0","3085670","0 SPACEBEE-102","1 48886U 21059H   21210.84241846  .00001993  00000-0  11979-3 0  9996","2 48886  97.5169 339.1584 0010266 132.0383 228.1722 15.11974774  5141","2021-059H","48886","6908.315","95.240","537.272","523.088","0"
"GENERATED VIA SPACETRACK.ORG API","18 SPCS","48886","SPACEBEE-102","PAYLOAD","U","21059H","2021-07-30 07:20:10","964544","15.11976455","0.0010265","97.5171","339.6142","130.6318","229.5807","0","999","521","0.00011902","0.00001979","0","3085948","0 SPACEBEE-102","1 48886U 21059H   21211.30568246  .00001979  00000-0  11902-3 0  9994","2 48886  97.5171 339.6142 0010265 130.6318 229.5807 15.11976455  5215","2021-059H","48886","6908.310","95.240","537.266","523.084","0"
"GENERATED VIA SPACETRACK.ORG API","18 SPCS","48886","SPACEBEE-102","PAYLOAD","U","21059H","2021-07-30 18:27:16","913664","15.11978509","0.0010298","97.5171","340.0701","129.227","230.9877","0","999","528","0.00012131","0.00002019","0","3086218","0 SPACEBEE-102","1 48886U 21059H   21211.76894576  .00002019  00000-0  12131-3 0  9993","2 48886  97.5171 340.0701 0010298 129.2270 230.9877 15.11978509  5281","2021-059H","48886","6908.304","95.239","537.283","523.055","0"
"GENERATED VIA SPACETRACK.ORG API","18 SPCS","48886","SPACEBEE-102","PAYLOAD","U","21059H","2021-07-30 18:27:16","913664","15.11978509","0.0010298","97.5171","340.0701","129.227","230.9877","0","999","528","0.00012131","0.00002019","0","3086384","0 SPACEBEE-102","1 48886U 21059H   21211.76894576  .00002019  00000-0  12131-3 0  9993","2 48886  97.5171 340.0701 0010298 129.2270 230.9877 15.11978509  5281","2021-059H","48886","6908.304","95.239","537.283","523.055","0"
"GENERATED VIA SPACETRACK.ORG API","18 SPCS","48886","SPACEBEE-102","PAYLOAD","U","21059H","2021-07-31 07:09:40","786272","15.11980599","0.0010304","97.5171","340.591","127.7399","232.4767","0","999","536","0.00012092","0.00002012","0","3086827","0 SPACEBEE-102","1 48886U 21059H   21212.29838873  .00002012  00000-0  12092-3 0  9999","2 48886  97.5171 340.5910 0010304 127.7399 232.4767 15.11980599  5367","2021-059H","48886","6908.297","95.239","537.281","523.044","0"
"GENERATED VIA SPACETRACK.ORG API","18 SPCS","48886","SPACEBEE-102","PAYLOAD","U","21059H","2021-07-31 19:52:04","594080","15.11982315","0.0010321","97.5171","341.112","126.2354","233.9832","0","999","544","0.00011569","0.00001923","0","3087042","0 SPACEBEE-102","1 48886U 21059H   21212.82783095  .00001923  00000-0  11569-3 0  9991","2 48886  97.5171 341.1120 0010321 126.2354 233.9832 15.11982315  5447","2021-059H","48886","6908.292","95.239","537.287","523.027","0"
"GENERATED VIA SPACETRACK.ORG API","18 SPCS","48886","SPACEBEE-102","PAYLOAD","U","21059H","2021-07-31 19:52:04","594080","15.11982315","0.0010321","97.5171","341.112","126.2354","233.9832","0","999","544","0.00011569","0.00001923","0","3087189","0 SPACEBEE-102","1 48886U 21059H   21212.82783095  .00001923  00000-0  11569-3 0  9991","2 48886  97.5171 341.1120 0010321 126.2354 233.9832 15.11982315  5447","2021-059H","48886","6908.292","95.239","537.287","523.027","0"
"GENERATED VIA SPACETRACK.ORG API","18 SPCS","48886","SPACEBEE-102","PAYLOAD","U","21059H","2021-08-01 06:59:10","377312","15.11983041","0.0010325","97.5171","341.5678","124.9265","235.2937","0","999","551","0.00010314","0.00001707","0","3087492","0 SPACEBEE-102","1 48886U 21059H   21213.29109233  .00001707  00000-0  10314-3 0  9996","2 48886  97.5171 341.5678 0010325 124.9265 235.2937 15.11983041  5515","2021-059H","48886","6908.290","95.239","537.288","523.022","0"
"GENERATED VIA SPACETRACK.ORG API","18 SPCS","48886","SPACEBEE-102","PAYLOAD","U","21059H","2021-08-01 19:41:34","88352","15.11985587","0.0010356","97.5173","342.0888","123.1656","237.0569","0","999","559","0.00010687","0.00001771","0","3087690","0 SPACEBEE-102","1 48886U 21059H   21213.82053343  .00001771  00000-0  10687-3 0  9999","2 48886  97.5173 342.0888 0010356 123.1656 237.0569 15.11985587  5591","2021-059H","48886","6908.282","95.239","537.301","522.993","0"
"GENERATED VIA SPACETRACK.ORG API","18 SPCS","48886","SPACEBEE-102","PAYLOAD","U","21059H","2021-08-02 02:02:45","904992","15.11986632","0.001037","97.5173","342.3494","122.3307","237.8929","0","999","563","0.00010604","0.00001757","0","3087862","0 SPACEBEE-102","1 48886U 21059H   21214.08525353  .00001757  00000-0  10604-3 0  9996","2 48886  97.5173 342.3494 0010370 122.3307 237.8929 15.11986632  5632","2021-059H","48886","6908.279","95.239","537.308","522.980","0"
